{
  "type": "FeatureCollection",
  "features": [
    {
      "type": "Feature",
      "properties": {
        "norad_id": 66517,
        "name": "STARLINK-35937",
        "group": "last-30-days",
        "lat": 4.935476985543833,
        "lon": -90.46827649090936,
        "alt_km": 362.82569013720513,
        "timestamp": "2025-12-05T19:30:24.350545+00:00",
        "meta_object_name": "STARLINK-35937",
        "meta_object_id": "2025-265B",
        "meta_epoch": "2025-12-05T06:00:02.000160",
        "meta_mean_motion": 15.70703019,
        "meta_eccentricity": 0.0001198,
        "meta_inclination": 42.9999,
        "meta_ra_of_asc_node": 98.2361,
        "meta_arg_of_pericenter": 267.2812,
        "meta_mean_anomaly": 321.7401,
        "meta_ephemeris_type": 0,
        "meta_classification_type": "U",
        "meta_norad_cat_id": 66517,
        "meta_element_set_no": 999,
        "meta_rev_at_epoch": 379,
        "meta_bstar": -0.016678694,
        "meta_mean_motion_dot": -0.01890258,
        "meta_mean_motion_ddot": 0,
        "tle_line1": "1 66517U 25265B   25339.25002315 -.01890258  00000+0 -16679-1 0  9999",
        "tle_line2": "2 66517  42.9999  98.2361 0001198 267.2812 321.7401 15.70703019  3795"
      },
      "geometry": {
        "type": "Point",
        "coordinates": [
          -90.46827649090936,
          4.935476985543833
        ]
      }
    },
    {
      "type": "Feature",
      "properties": {
        "norad_id": 66518,
        "name": "STARLINK-35962",
        "group": "last-30-days",
        "lat": 3.6324867207861877,
        "lon": -89.06263119794862,
        "alt_km": 362.94370714967863,
        "timestamp": "2025-12-05T19:30:24.350556+00:00",
        "meta_object_name": "STARLINK-35962",
        "meta_object_id": "2025-265C",
        "meta_epoch": "2025-12-05T06:00:02.000160",
        "meta_mean_motion": 15.70674548,
        "meta_eccentricity": 0.00015698,
        "meta_inclination": 42.9999,
        "meta_ra_of_asc_node": 98.2309,
        "meta_arg_of_pericenter": 267.0472,
        "meta_mean_anomaly": 323.9095,
        "meta_ephemeris_type": 0,
        "meta_classification_type": "U",
        "meta_norad_cat_id": 66518,
        "meta_element_set_no": 999,
        "meta_rev_at_epoch": 379,
        "meta_bstar": -0.016377263,
        "meta_mean_motion_dot": -0.01822418,
        "meta_mean_motion_ddot": 0,
        "tle_line1": "1 66518U 25265C   25339.25002315 -.01822418  00000+0 -16377-1 0  9998",
        "tle_line2": "2 66518  42.9999  98.2309 0001569 267.0472 323.9095 15.70674548  3797"
      },
      "geometry": {
        "type": "Point",
        "coordinates": [
          -89.06263119794862,
          3.6324867207861877
        ]
      }
    },
    {
      "type": "Feature",
      "properties": {
        "norad_id": 66519,
        "name": "STARLINK-35931",
        "group": "last-30-days",
        "lat": 2.3431807337792088,
        "lon": -87.6778557850617,
        "alt_km": 363.6409594098159,
        "timestamp": "2025-12-05T19:30:24.350566+00:00",
        "meta_object_name": "STARLINK-35931",
        "meta_object_id": "2025-265D",
        "meta_epoch": "2025-12-05T06:00:02.000160",
        "meta_mean_motion": 15.70635165,
        "meta_eccentricity": 0.00016153,
        "meta_inclination": 43,
        "meta_ra_of_asc_node": 98.2257,
        "meta_arg_of_pericenter": 279.0378,
        "meta_mean_anomaly": 313.9285,
        "meta_ephemeris_type": 0,
        "meta_classification_type": "U",
        "meta_norad_cat_id": 66519,
        "meta_element_set_no": 999,
        "meta_rev_at_epoch": 379,
        "meta_bstar": -0.016669854,
        "meta_mean_motion_dot": -0.0188485,
        "meta_mean_motion_ddot": 0,
        "tle_line1": "1 66519U 25265D   25339.25002315 -.01884850  00000+0 -16670-1 0  9993",
        "tle_line2": "2 66519  43.0000  98.2257 0001615 279.0378 313.9285 15.70635165  3797"
      },
      "geometry": {
        "type": "Point",
        "coordinates": [
          -87.6778557850617,
          2.3431807337792088
        ]
      }
    },
    {
      "type": "Feature",
      "properties": {
        "norad_id": 66520,
        "name": "STARLINK-35952",
        "group": "last-30-days",
        "lat": 1.0216118645151437,
        "lon": -86.26262030951872,
        "alt_km": 363.2973565606617,
        "timestamp": "2025-12-05T19:30:24.350579+00:00",
        "meta_object_name": "STARLINK-35952",
        "meta_object_id": "2025-265E",
        "meta_epoch": "2025-12-05T06:00:02.000160",
        "meta_mean_motion": 15.70701904,
        "meta_eccentricity": 0.00012982,
        "meta_inclination": 42.9999,
        "meta_ra_of_asc_node": 98.221,
        "meta_arg_of_pericenter": 269.4141,
        "meta_mean_anomaly": 325.358,
        "meta_ephemeris_type": 0,
        "meta_classification_type": "U",
        "meta_norad_cat_id": 66520,
        "meta_element_set_no": 999,
        "meta_rev_at_epoch": 379,
        "meta_bstar": -0.016659086,
        "meta_mean_motion_dot": -0.01888277,
        "meta_mean_motion_ddot": 0,
        "tle_line1": "1 66520U 25265E   25339.25002315 -.01888277  00000+0 -16659-1 0  9999",
        "tle_line2": "2 66520  42.9999  98.2210 0001298 269.4141 325.3580 15.70701904  3791"
      },
      "geometry": {
        "type": "Point",
        "coordinates": [
          -86.26262030951872,
          1.0216118645151437
        ]
      }
    },
    {
      "type": "Feature",
      "properties": {
        "norad_id": 66521,
        "name": "STARLINK-35915",
        "group": "last-30-days",
        "lat": -0.2852546565186251,
        "lon": -84.86477362518494,
        "alt_km": 363.39375798424953,
        "timestamp": "2025-12-05T19:30:24.350589+00:00",
        "meta_object_name": "STARLINK-35915",
        "meta_object_id": "2025-265F",
        "meta_epoch": "2025-12-05T06:00:02.000160",
        "meta_mean_motion": 15.70706698,
        "meta_eccentricity": 0.00013009,
        "meta_inclination": 42.9999,
        "meta_ra_of_asc_node": 98.2162,
        "meta_arg_of_pericenter": 267.9245,
        "meta_mean_anomaly": 328.7613,
        "meta_ephemeris_type": 0,
        "meta_classification_type": "U",
        "meta_norad_cat_id": 66521,
        "meta_element_set_no": 999,
        "meta_rev_at_epoch": 379,
        "meta_bstar": -0.01670306,
        "meta_mean_motion_dot": -0.01893047,
        "meta_mean_motion_ddot": 0,
        "tle_line1": "1 66521U 25265F   25339.25002315 -.01893047  00000+0 -16703-1 0  9991",
        "tle_line2": "2 66521  42.9999  98.2162 0001300 267.9245 328.7613 15.70706698  3799"
      },
      "geometry": {
        "type": "Point",
        "coordinates": [
          -84.86477362518494,
          -0.2852546565186251
        ]
      }
    },
    {
      "type": "Feature",
      "properties": {
        "norad_id": 66522,
        "name": "STARLINK-35946",
        "group": "last-30-days",
        "lat": -1.5920660626469554,
        "lon": -83.46656938184087,
        "alt_km": 363.52893935891643,
        "timestamp": "2025-12-05T19:30:24.350600+00:00",
        "meta_object_name": "STARLINK-35946",
        "meta_object_id": "2025-265G",
        "meta_epoch": "2025-12-05T06:00:02.000160",
        "meta_mean_motion": 15.70703945,
        "meta_eccentricity": 0.00013016,
        "meta_inclination": 42.9998,
        "meta_ra_of_asc_node": 98.2113,
        "meta_arg_of_pericenter": 268.1956,
        "meta_mean_anomaly": 330.4103,
        "meta_ephemeris_type": 0,
        "meta_classification_type": "U",
        "meta_norad_cat_id": 66522,
        "meta_element_set_no": 999,
        "meta_rev_at_epoch": 379,
        "meta_bstar": -0.016686337,
        "meta_mean_motion_dot": -0.01891168,
        "meta_mean_motion_ddot": 0,
        "tle_line1": "1 66522U 25265G   25339.25002315 -.01891168  00000+0 -16686-1 0  9994",
        "tle_line2": "2 66522  42.9998  98.2113 0001301 268.1956 330.4103 15.70703945  3794"
      },
      "geometry": {
        "type": "Point",
        "coordinates": [
          -83.46656938184087,
          -1.5920660626469554
        ]
      }
    },
    {
      "type": "Feature",
      "properties": {
        "norad_id": 66523,
        "name": "STARLINK-35969",
        "group": "last-30-days",
        "lat": -2.8991945358584137,
        "lon": -82.0649326451762,
        "alt_km": 363.56357552508325,
        "timestamp": "2025-12-05T19:30:24.350610+00:00",
        "meta_object_name": "STARLINK-35969",
        "meta_object_id": "2025-265H",
        "meta_epoch": "2025-12-05T06:00:02.000160",
        "meta_mean_motion": 15.70702474,
        "meta_eccentricity": 0.0001203,
        "meta_inclination": 43.0001,
        "meta_ra_of_asc_node": 98.2067,
        "meta_arg_of_pericenter": 264.5981,
        "meta_mean_anomaly": 335.926,
        "meta_ephemeris_type": 0,
        "meta_classification_type": "U",
        "meta_norad_cat_id": 66523,
        "meta_element_set_no": 999,
        "meta_rev_at_epoch": 379,
        "meta_bstar": -0.016667534,
        "meta_mean_motion_dot": -0.01889099,
        "meta_mean_motion_ddot": 0,
        "tle_line1": "1 66523U 25265H   25339.25002315 -.01889099  00000+0 -16668-1 0  9995",
        "tle_line2": "2 66523  43.0001  98.2067 0001203 264.5981 335.9260 15.70702474  3799"
      },
      "geometry": {
        "type": "Point",
        "coordinates": [
          -82.0649326451762,
          -2.8991945358584137
        ]
      }
    }
  ]
}